NORAD_CAT_ID,OBJECT_NAME,OBJECT_TYPE,EPOCH,MEAN_MOTION,ECCENTRICITY,INCLINATION,RA_OF_ASC_NODE,ARG_OF_PERICENTER,MEAN_ANOMALY,BSTAR,MEAN_MOTION_DOT,MEAN_MOTION_DDOT,TLE_LINE0,TLE_LINE1,TLE_LINE2,SEMIMAJOR_AXIS,PERIOD,APOGEE,PERIGEE,DECAYED
52871.0,STARLINK-4207,PAYLOAD,2024-04-22 10:47:26,15.08844137,0.0001638,53.2179,214.7727,110.0063,250.1105,0.00083914,0.00013094,0.0,0 STARLINK-4207,1 52871U 22062AT  24113.44961000  .00013094  00000-0  83914-3 0  9995,2 52871  53.2179 214.7727 0001638 110.0063 250.1105 15.08844137102469,6917.868,95.437,540.866,538.6,0.0
52871.0,STARLINK-4207,PAYLOAD,2024-04-22 12:22:49,15.08850451,0.0001729,53.2181,214.4752,109.5365,250.5814,0.00082556,0.00012879,0.0,0 STARLINK-4207,1 52871U 22062AT  24113.51584733  .00012879  00000-0  82556-3 0  9998,2 52871  53.2181 214.4752 0001729 109.5365 250.5814 15.08850451102474,6917.848,95.437,540.91,538.517,0.0
52871.0,STARLINK-4207,PAYLOAD,2024-04-23 12:13:36,15.08850827,0.0002163,53.2181,210.0158,55.6976,304.4221,0.00032647,4.913e-05,0.0,0 STARLINK-4207,1 52871U 22062AT  24114.50944700  .00004913  00000-0  32647-3 0  9998,2 52871  53.2181 210.0158 0002163  55.6976 304.4221 15.08850827103118,6917.847,95.437,541.209,538.216,0.0
52871.0,STARLINK-4207,PAYLOAD,2024-04-23 13:48:59,15.08856924,0.0001996,53.218,209.7176,73.2787,286.8424,0.00045047,6.892e-05,0.0,0 STARLINK-4207,1 52871U 22062AT  24114.57568385  .00006892  00000-0  45047-3 0  9992,2 52871  53.2180 209.7176 0001996  73.2787 286.8424 15.08856924102639,6917.829,95.436,541.074,538.313,0.0
52871.0,STARLINK-4207,PAYLOAD,2024-04-24 12:04:22,15.08848209,0.0001794,53.2168,205.5533,103.4819,256.6373,0.00039115,5.944e-05,0.0,0 STARLINK-4207,1 52871U 22062AT  24115.50303703  .00005944  00000-0  39115-3 0  9993,2 52871  53.2168 205.5533 0001794 103.4819 256.6373 15.08848209103269,6917.855,95.437,540.961,538.479,0.0
52871.0,STARLINK-4207,PAYLOAD,2024-04-24 13:39:45,15.08850169,0.00018,53.2169,205.256,83.3691,276.7506,0.000529,8.143e-05,0.0,0 STARLINK-4207,1 52871U 22062AT  24115.56927831  .00008143  00000-0  52900-3 0  9994,2 52871  53.2169 205.2560 0001800  83.3691 276.7506 15.08850169102784,6917.849,95.437,540.96,538.469,0.0
52871.0,STARLINK-4207,PAYLOAD,2024-04-25 11:55:10,15.0882949,0.0002525,53.2167,201.0958,57.264,302.8595,-8.4514e-05,-1.633e-05,0.0,0 STARLINK-4207,1 52871U 22062AT  24116.49665346 -.00001633  00000-0 -84514-4 0  9993,2 52871  53.2167 201.0958 0002525  57.2640 302.8595 15.08829490103419,6917.913,95.438,541.524,538.031,0.0
52871.0,STARLINK-4207,PAYLOAD,2024-04-26 11:45:57,15.08840777,0.0001817,53.2166,196.6294,95.5623,264.5576,0.00075748,0.00011788,0.0,0 STARLINK-4207,1 52871U 22062AT  24117.49025353  .00011788  00000-0  75748-3 0  9990,2 52871  53.2166 196.6294 0001817  95.5623 264.5576 15.08840777103569,6917.878,95.438,541.0,538.486,0.0
52871.0,STARLINK-4207,PAYLOAD,2024-04-26 14:56:44,15.08847675,0.0001826,53.2167,196.0312,99.0259,261.094,0.0010062,0.00015765,0.0,0 STARLINK-4207,1 52871U 22062AT  24117.62273254  .00015765  00000-0  10062-2 0  9996,2 52871  53.2167 196.0312 0001826  99.0259 261.0940 15.08847675103098,6917.857,95.437,540.985,538.459,0.0
52871.0,STARLINK-4207,PAYLOAD,2024-04-27 11:36:43,15.08873372,0.0001496,53.216,192.1713,98.1687,261.9475,0.00089669,0.00014025,0.0,0 STARLINK-4207,1 52871U 22062AT  24118.48384141  .00014025  00000-0  89669-3 0  9997,2 52871  53.2160 192.1713 0001496  98.1687 261.9475 15.08873372103221,6917.778,95.435,540.678,538.608,0.0
52871.0,STARLINK-4207,PAYLOAD,2024-04-28 05:05:58,15.08839628,0.0001596,53.215,188.8954,90.8161,269.3014,-5.8772e-05,-1.223e-05,0.0,0 STARLINK-4207,1 52871U 22062AT  24119.21248566 -.00001223  00000-0 -58772-4 0  9999,2 52871  53.2150 188.8954 0001596  90.8161 269.3014 15.08839628103829,6917.882,95.438,540.851,538.642,0.0
52871.0,STARLINK-4207,PAYLOAD,2024-04-28 11:27:31,15.08831493,0.0001357,53.2145,187.7093,74.9368,285.1774,-0.00028002,-4.741e-05,0.0,0 STARLINK-4207,1 52871U 22062AT  24119.47745092 -.00004741  00000-0 -28002-3 0  9993,2 52871  53.2145 187.7093 0001357  74.9368 285.1774 15.08831493103867,6917.906,95.438,540.71,538.833,0.0
52871.0,STARLINK-4207,PAYLOAD,2024-04-28 20:59:50,15.08829433,0.0001443,53.2156,185.9279,79.346,280.7694,-0.00020938,-3.618e-05,0.0,0 STARLINK-4207,1 52871U 22062AT  24119.87489403 -.00003618  00000-0 -20938-3 0  9990,2 52871  53.2156 185.9279 0001443  79.3460 280.7694 15.08829433103439,6917.913,95.438,540.776,538.779,0.0
52871.0,STARLINK-4207,PAYLOAD,2024-04-29 11:18:18,15.08843524,0.0001438,53.2153,183.2528,89.9475,270.1682,-0.00011311,-2.088e-05,0.0,0 STARLINK-4207,1 52871U 22062AT  24120.47105147 -.00002088  00000-0 -11311-3 0  9993,2 52871  53.2153 183.2528 0001438  89.9475 270.1682 15.08843524104013,6917.87,95.437,540.729,538.74,0.0
52871.0,STARLINK-4207,PAYLOAD,2024-04-29 20:50:37,15.08852339,0.0001397,53.2159,181.4678,80.0974,280.0176,0.00015393,2.164e-05,0.0,0 STARLINK-4207,1 52871U 22062AT  24120.86848626  .00002164  00000-0  15393-3 0  9999,2 52871  53.2159 181.4678 0001397  80.0974 280.0176 15.08852339103588,6917.843,95.437,540.674,538.741,0.0
52871.0,STARLINK-4207,PAYLOAD,2024-04-30 11:09:05,15.08869149,0.0001489,53.2152,178.7915,76.8557,283.2601,0.00072023,0.00011202,0.0,0 STARLINK-4207,1 52871U 22062AT  24121.46464231  .00011202  00000-0  72023-3 0  9998,2 52871  53.2152 178.7915 0001489  76.8557 283.2601 15.08869149103671,6917.791,95.436,540.686,538.626,0.0
52871.0,STARLINK-4207,PAYLOAD,2024-04-30 20:41:23,15.08859404,0.0001342,53.2151,177.0079,86.5345,273.58,0.00022499,3.296e-05,0.0,0 STARLINK-4207,1 52871U 22062AT  24121.86208113  .00003296  00000-0  22499-3 0  9993,2 52871  53.2151 177.0079 0001342  86.5345 273.5800 15.08859404103737,6917.821,95.436,540.614,538.758,0.0
52871.0,STARLINK-4207,PAYLOAD,2024-05-01 03:02:56,15.08848503,0.0002403,53.2157,175.8187,87.4319,272.6948,3.2518e-05,2.29e-06,0.0,0 STARLINK-4207,1 52871U 22062AT  24122.12704494  .00000229  00000-0  32518-4 0  9993,2 52871  53.2157 175.8187 0002403  87.4319 272.6948 15.08848503104269,6917.854,95.437,541.382,538.057,0.0
52871.0,STARLINK-4207,PAYLOAD,2024-05-01 20:32:12,15.08827876,0.0001425,53.2147,172.5464,96.6245,263.4909,0.00070133,0.00010888,0.0,0 STARLINK-4207,1 52871U 22062AT  24122.85569553  .00010888  00000-0  70133-3 0  9994,2 52871  53.2147 172.5464 0001425  96.6245 263.4909 15.08827876104370,6917.917,95.438,540.768,538.797,0.0
52871.0,STARLINK-4207,PAYLOAD,2024-05-02 10:50:40,15.08840165,0.0001454,53.2146,169.8698,96.0159,264.0999,0.00081143,0.0001265,0.0,0 STARLINK-4207,1 52871U 22062AT  24123.45185854  .00012650  00000-0  81143-3 0  9991,2 52871  53.2146 169.8698 0001454  96.0159 264.0999 15.08840165103974,6917.88,95.438,540.751,538.739,0.0
52871.0,STARLINK-4207,PAYLOAD,2024-05-03 12:16:50,15.08858163,0.0001526,53.2147,165.1111,93.7385,266.3781,0.00063929,9.906e-05,0.0,0 STARLINK-4207,1 52871U 22062AT  24124.51169273  .00009906  00000-0  63929-3 0  9998,2 52871  53.2147 165.1111 0001526  93.7385 266.3781 15.08858163104623,6917.825,95.436,540.746,538.634,0.0
52871.0,STARLINK-4207,PAYLOAD,2024-05-03 20:13:46,15.08844028,0.0001595,53.2147,163.6247,90.5862,269.5312,9.8314e-05,1.277e-05,0.0,0 STARLINK-4207,1 52871U 22062AT  24124.84289538  .00001277  00000-0  98314-4 0  9991,2 52871  53.2147 163.6247 0001595  90.5862 269.5312 15.08844028104672,6917.868,95.437,540.836,538.63,0.0
52871.0,STARLINK-4207,PAYLOAD,2024-05-04 05:46:05,15.08826601,0.0001468,53.2147,161.8405,98.816,261.2998,-0.00025844,-4.397e-05,0.0,0 STARLINK-4207,1 52871U 22062AT  24125.24034174 -.00004397  00000-0 -25844-3 0  9995,2 52871  53.2147 161.8405 0001468  98.8160 261.2998 15.08826601104732,6917.921,95.438,540.802,538.771,0.0
52871.0,STARLINK-4207,PAYLOAD,2024-05-05 11:58:26,15.08836758,0.0001503,53.2154,156.1906,98.7414,261.3748,0.00039263,5.966e-05,0.0,0 STARLINK-4207,1 52871U 22062AT  24126.49891306  .00005966  00000-0  39263-3 0  9992,2 52871  53.2154 156.1906 0001503  98.7414 261.3748 15.08836758104923,6917.89,95.438,540.795,538.716,0.0
52871.0,STARLINK-4207,PAYLOAD,2024-05-06 08:38:26,15.08858044,0.0001474,53.2152,152.3253,98.5781,261.5378,0.00079956,0.00012466,0.0,0 STARLINK-4207,1 52871U 22062AT  24127.36003001  .00012466  00000-0  79956-3 0  9992,2 52871  53.2152 152.3253 0001474  98.5781 261.5378 15.08858044104569,6917.825,95.436,540.71,538.671,0.0
52871.0,STARLINK-4207,PAYLOAD,2024-05-06 18:10:45,15.08858844,0.0001416,53.2147,150.5411,96.9407,263.1747,0.00059031,9.124e-05,0.0,0 STARLINK-4207,1 52871U 22062AT  24127.75746690  .00009124  00000-0  59031-3 0  9992,2 52871  53.2147 150.5411 0001416  96.9407 263.1747 15.08858844105110,6917.823,95.436,540.667,538.708,0.0
52871.0,STARLINK-4207,PAYLOAD,2024-05-07 08:29:12,15.08859423,0.0001472,53.2152,147.8652,99.289,260.8268,0.00036444,5.52e-05,0.0,0 STARLINK-4207,1 52871U 22062AT  24128.35362087  .00005520  00000-0  36444-3 0  9992,2 52871  53.2152 147.8652 0001472  99.2890 260.8268 15.08859423105202,6917.821,95.436,540.704,538.668,0.0
52871.0,STARLINK-4207,PAYLOAD,2024-05-07 18:01:31,15.08850671,0.0001439,53.2145,146.0817,102.302,257.8133,7.7516e-05,9.46e-06,0.0,0 STARLINK-4207,1 52871U 22062AT  24128.75105978  .00000946  00000-0  77516-4 0  9993,2 52871  53.2145 146.0817 0001439 102.3020 257.8133 15.08850671105261,6917.848,95.437,540.708,538.717,0.0
52871.0,STARLINK-4207,PAYLOAD,2024-05-08 05:09:13,15.08839159,0.0001534,53.2152,144.0006,102.9232,257.1932,-0.00013318,-2.407e-05,0.0,0 STARLINK-4207,1 52871U 22062AT  24129.21474333 -.00002407  00000-0 -13318-3 0  9994,2 52871  53.2152 144.0006 0001534 102.9232 257.1932 15.08839159105330,6917.883,95.438,540.809,538.687,0.0
52871.0,STARLINK-4207,PAYLOAD,2024-05-08 09:55:23,15.08840275,0.0001482,53.2165,143.1083,102.1698,257.946,-8.5994e-06,-4.25e-06,0.0,0 STARLINK-4207,1 52871U 22062AT  24129.41346972 -.00000425  00000-0 -85994-5 0  9992,2 52871  53.2165 143.1083 0001482 102.1698 257.9460 15.08840275104872,6917.88,95.438,540.77,538.719,0.0
